{
  "type": "FeatureCollection",
  "name": "Twin_Cities_AOI",
  "crs": {
    "type": "name",
    "properties": { "name": "urn:ogc:def:crs:OGC:1.3:CRS84" }
  },
  "features": [
    {
      "type": "Feature",
      "properties": {
        "name": "Twin Cities Study Area",
        "description": "AOI covering the Mississippi, Minnesota, and St. Croix river confluence near Minneapolis-St. Paul, MN. Contains USGS-05331000 (Mississippi River at St. Paul) and several other long-record gauges."
      },
      "geometry": {
        "type": "Polygon",
        "coordinates": [
          [
            [-93.70, 44.65],
            [-92.65, 44.65],
            [-92.65, 45.20],
            [-93.70, 45.20],
            [-93.70, 44.65]
          ]
        ]
      }
    }
  ]
}
