{
"type": "FeatureCollection",
"name": "naip_training_polygons",
"crs": { "type": "name", "properties": { "name": "urn:ogc:def:crs:OGC:1.3:CRS84" } },
"features": [
{ "type": "Feature", "properties": { "label_id": "T01", "class_id": 1, "class_name": "Vegetation", "description": "Irrigated turf athletic field, campus", "imagery": "naip_2022_teaching_aoi.tif (NAIP acquired 2022-06-21)", "method": "Visual interpretation", "review_status": "Draft - course author review required before teaching", "label_date": "2026-09-29" }, "geometry": { "type": "Polygon", "coordinates": [ [ [ -104.782515646066102, 41.103973524118601 ], [ -104.782512584952755, 41.104901349181233 ], [ -104.7834891398754, 41.104903188411519 ], [ -104.783492187244107, 41.103975363289173 ], [ -104.782515646066102, 41.103973524118601 ] ] ] } },
{ "type": "Feature", "properties": { "label_id": "T02", "class_id": 1, "class_name": "Vegetation", "description": "Dry rangeland grass, field north of campus", "imagery": "naip_2022_teaching_aoi.tif (NAIP acquired 2022-06-21)", "method": "Visual interpretation", "review_status": "Draft - course author review required before teaching", "label_date": "2026-09-29" }, "geometry": { "type": "Polygon", "coordinates": [ [ [ -104.785628256630034, 41.106303438322364 ], [ -104.785622983148656, 41.107924879756133 ], [ -104.786813958669669, 41.10792708959444 ], [ -104.786819202854659, 41.106305648035267 ], [ -104.785628256630034, 41.106303438322364 ] ] ] } },
{ "type": "Feature", "properties": { "label_id": "T03", "class_id": 1, "class_name": "Vegetation", "description": "Darker rangeland grass and shrubs east of roundabout", "imagery": "naip_2022_teaching_aoi.tif (NAIP acquired 2022-06-21)", "method": "Visual interpretation", "review_status": "Draft - course author review required before teaching", "label_date": "2026-09-29" }, "geometry": { "type": "Polygon", "coordinates": [ [ [ -104.7769541649443, 41.100431728870596 ], [ -104.776951422136619, 41.101242450004221 ], [ -104.778618617927847, 41.101245665397222 ], [ -104.778621340234579, 41.100434944172356 ], [ -104.7769541649443, 41.100431728870596 ] ] ] } },
{ "type": "Feature", "properties": { "label_id": "T04", "class_id": 1, "class_name": "Vegetation", "description": "Dense tree row west of campus pond", "imagery": "naip_2022_teaching_aoi.tif (NAIP acquired 2022-06-21)", "method": "Visual interpretation", "review_status": "Draft - course author review required before teaching", "label_date": "2026-09-29" }, "geometry": { "type": "Polygon", "coordinates": [ [ [ -104.78515716294585, 41.104681109148558 ], [ -104.785155107809359, 41.105311669919288 ], [ -104.785321837759085, 41.105311980698751 ], [ -104.78532389130072, 41.104681419921164 ], [ -104.78515716294585, 41.104681109148558 ] ] ] } },
{ "type": "Feature", "properties": { "label_id": "T05", "class_id": 2, "class_name": "Bare soil", "description": "Graded construction ground, bright soil", "imagery": "naip_2022_teaching_aoi.tif (NAIP acquired 2022-06-21)", "method": "Visual interpretation", "review_status": "Draft - course author review required before teaching", "label_date": "2026-09-29" }, "geometry": { "type": "Polygon", "coordinates": [ [ [ -104.778031076118097, 41.098902436054594 ], [ -104.778028346700012, 41.099713157463427 ], [ -104.7793382559382, 41.099715673554726 ], [ -104.779340969249631, 41.098904952074498 ], [ -104.778031076118097, 41.098902436054594 ] ] ] } },
{ "type": "Feature", "properties": { "label_id": "T06", "class_id": 2, "class_name": "Bare soil", "description": "Graded soil and dark spoil pile north of campus", "imagery": "naip_2022_teaching_aoi.tif (NAIP acquired 2022-06-21)", "method": "Visual interpretation", "review_status": "Draft - course author review required before teaching", "label_date": "2026-09-29" }, "geometry": { "type": "Polygon", "coordinates": [ [ [ -104.781518537735394, 41.106583976527681 ], [ -104.781515910192439, 41.107376681031944 ], [ -104.782111392822458, 41.107377808704811 ], [ -104.782114013204122, 41.10658510416927 ], [ -104.781518537735394, 41.106583976527681 ] ] ] } },
{ "type": "Feature", "properties": { "label_id": "T07", "class_id": 2, "class_name": "Bare soil", "description": "Reddish bare soil pad beside new building", "imagery": "naip_2022_teaching_aoi.tif (NAIP acquired 2022-06-21)", "method": "Visual interpretation", "review_status": "Draft - course author review required before teaching", "label_date": "2026-09-29" }, "geometry": { "type": "Polygon", "coordinates": [ [ [ -104.78526358666133, 41.101258241347551 ], [ -104.785262178299561, 41.101690626144268 ], [ -104.785524168118101, 41.101691114125167 ], [ -104.78552557476165, 41.10125872932106 ], [ -104.78526358666133, 41.101258241347551 ] ] ] } },
{ "type": "Feature", "properties": { "label_id": "T08", "class_id": 3, "class_name": "Built/paved", "description": "Asphalt parking lot with cars", "imagery": "naip_2022_teaching_aoi.tif (NAIP acquired 2022-06-21)", "method": "Visual interpretation", "review_status": "Draft - course author review required before teaching", "label_date": "2026-09-29" }, "geometry": { "type": "Polygon", "coordinates": [ [ [ -104.779916528779978, 41.104851379227725 ], [ -104.779914423500429, 41.105481939760381 ], [ -104.780807621687373, 41.105483642467298 ], [ -104.780809718422987, 41.104853081897069 ], [ -104.779916528779978, 41.104851379227725 ] ] ] } },
{ "type": "Feature", "properties": { "label_id": "T09", "class_id": 3, "class_name": "Built/paved", "description": "Light roof, campus building", "imagery": "naip_2022_teaching_aoi.tif (NAIP acquired 2022-06-21)", "method": "Visual interpretation", "review_status": "Draft - course author review required before teaching", "label_date": "2026-09-29" }, "geometry": { "type": "Polygon", "coordinates": [ [ [ -104.781751976481686, 41.10442248342946 ], [ -104.781394702926548, 41.104421806120207 ], [ -104.781392850805631, 41.10498030269256 ], [ -104.781321395490679, 41.104980167095128 ], [ -104.781320708175741, 41.105187351292635 ], [ -104.78184471547695, 41.105188344651978 ], [ -104.781845401144935, 41.104981160447259 ], [ -104.781750127387667, 41.104980980015043 ], [ -104.781751976481686, 41.10442248342946 ] ] ] } },
{ "type": "Feature", "properties": { "label_id": "T10", "class_id": 3, "class_name": "Built/paved", "description": "Gray roof, large campus building", "imagery": "naip_2022_teaching_aoi.tif (NAIP acquired 2022-06-21)", "method": "Visual interpretation", "review_status": "Draft - course author review required before teaching", "label_date": "2026-09-29" }, "geometry": { "type": "Polygon", "coordinates": [ [ [ -104.776935420193823, 41.105971654332812 ], [ -104.776932981468008, 41.106692294649982 ], [ -104.777409362476121, 41.106693215971006 ], [ -104.777411795993899, 41.105972575630595 ], [ -104.776935420193823, 41.105971654332812 ] ] ] } },
{ "type": "Feature", "properties": { "label_id": "T11", "class_id": 3, "class_name": "Built/paved", "description": "Asphalt arterial road", "imagery": "naip_2022_teaching_aoi.tif (NAIP acquired 2022-06-21)", "method": "Visual interpretation", "review_status": "Draft - course author review required before teaching", "label_date": "2026-09-29" }, "geometry": { "type": "Polygon", "coordinates": [ [ [ -104.785760613564719, 41.102223030179211 ], [ -104.785760350101469, 41.102304102320076 ], [ -104.788380273039763, 41.102308944053036 ], [ -104.788380533281199, 41.102227871898414 ], [ -104.785760613564719, 41.102223030179211 ] ] ] } },
{ "type": "Feature", "properties": { "label_id": "T12", "class_id": 3, "class_name": "Built/paved", "description": "Light concrete parking lot with cars", "imagery": "naip_2022_teaching_aoi.tif (NAIP acquired 2022-06-21)", "method": "Visual interpretation", "review_status": "Draft - course author review required before teaching", "label_date": "2026-09-29" }, "geometry": { "type": "Polygon", "coordinates": [ [ [ -104.775872916226291, 41.103222132371485 ], [ -104.775870466121347, 41.103942772981455 ], [ -104.776585007785187, 41.103944160738465 ], [ -104.776587450079191, 41.103223520093501 ], [ -104.775872916226291, 41.103222132371485 ] ] ] } },
{ "type": "Feature", "properties": { "label_id": "T13", "class_id": 4, "class_name": "Water", "description": "Open water, east lobe of north pond", "imagery": "naip_2022_teaching_aoi.tif (NAIP acquired 2022-06-21)", "method": "Visual interpretation", "review_status": "Draft - course author review required before teaching", "label_date": "2026-09-29" }, "geometry": { "type": "Polygon", "coordinates": [ [ [ -104.77981267959872, 41.107418478919804 ], [ -104.779252835161259, 41.107444431836427 ], [ -104.779192622960991, 41.107642493805827 ], [ -104.779489702427782, 41.107841240106623 ], [ -104.779811174989021, 41.107868879102838 ], [ -104.77981267959872, 41.107418478919804 ] ] ] } }
]
}
